TRANSPORTER-10 OBJECT AD
1 59125U 24043AD  26068.86032889  .00011954  00000+0  36311-3 0  9997
2 59125  97.5470 207.3753 0008984 221.4908 138.5653 15.34189901112026
STARLINK-32134          
1 60300U 24132Y   26068.38256065  .00000385  00000+0  25126-4 0  9993
2 60300  53.1611  53.8358 0001242  81.5362 278.5780 15.30194938 91510
