[{"OBJECT_NAME":"TRANSPORTER-10 OBJECT AD","OBJECT_ID":"2024-043AD","EPOCH":"2026-03-09T20:38:52.416960","MEAN_MOTION":15.34189901,"ECCENTRICITY":0.00089841,"INCLINATION":97.547,"RA_OF_ASC_NODE":207.3753,"ARG_OF_PERICENTER":221.4908,"MEAN_ANOMALY":138.5653,"EPHEMERIS_TYPE":0,"CLASSIFICATION_TYPE":"U","NORAD_CAT_ID":59125,"ELEMENT_SET_NO":999,"REV_AT_EPOCH":11202,"BSTAR":0.00036310552,"MEAN_MOTION_DOT":0.00011954,"MEAN_MOTION_DDOT":0},{"OBJECT_NAME":"STARLINK-32134","OBJECT_ID":"2024-132Y","EPOCH":"2026-03-09T09:10:53.240160","MEAN_MOTION":15.30194938,"ECCENTRICITY":0.00012426,"INCLINATION":53.1611,"RA_OF_ASC_NODE":53.8358,"ARG_OF_PERICENTER":81.5362,"MEAN_ANOMALY":278.578,"EPHEMERIS_TYPE":0,"CLASSIFICATION_TYPE":"U","NORAD_CAT_ID":60300,"ELEMENT_SET_NO":999,"REV_AT_EPOCH":9151,"BSTAR":2.5126235e-5,"MEAN_MOTION_DOT":3.85e-6,"MEAN_MOTION_DDOT":0}]
